[{"OBJECT_NAME":"STARLINK-32557","OBJECT_ID":"2024-222P","EPOCH":"2026-03-09T12:26:29.487840","MEAN_MOTION":15.27588888,"ECCENTRICITY":2.871e-5,"INCLINATION":42.9936,"RA_OF_ASC_NODE":126.5426,"ARG_OF_PERICENTER":322.7448,"MEAN_ANOMALY":37.3384,"EPHEMERIS_TYPE":0,"CLASSIFICATION_TYPE":"U","NORAD_CAT_ID":62127,"ELEMENT_SET_NO":999,"REV_AT_EPOCH":7289,"BSTAR":0.00073800129,"MEAN_MOTION_DOT":0.00020107,"MEAN_MOTION_DDOT":0},{"OBJECT_NAME":"CZ-4B R\/B","OBJECT_ID":"2011-079B","EPOCH":"2026-03-09T23:23:58.850880","MEAN_MOTION":15.14795537,"ECCENTRICITY":0.01251775,"INCLINATION":98.4688,"RA_OF_ASC_NODE":256.8191,"ARG_OF_PERICENTER":336.5095,"MEAN_ANOMALY":23.0446,"EPHEMERIS_TYPE":0,"CLASSIFICATION_TYPE":"U","NORAD_CAT_ID":38039,"ELEMENT_SET_NO":999,"REV_AT_EPOCH":77480,"BSTAR":0.00026364037,"MEAN_MOTION_DOT":5.867e-5,"MEAN_MOTION_DDOT":0}]
